{"type":"FeatureCollection","name":"GroundTruth demo building footprints (Istanbul, Sultanahmet/Fatih cluster)","note":"Sourced once from OpenStreetMap via Overpass at development time. One demo area only.","bbox":[28.977,41.007,28.9805,41.01],"features":[{"type":"Feature","properties":{"osm_id":55481688,"building":"yes"},"geometry":{"type":"Polygon","coordinates":[[[28.97755,41.008784],[28.977465,41.008733],[28.9775,41.008699],[28.977483,41.008689],[28.977514,41.00866],[28.977559,41.008687],[28.977616,41.008721],[28.97755,41.008784]]]}},{"type":"Feature","properties":{"osm_id":55481690,"building":"yes"},"geometry":{"type":"Polygon","coordinates":[[[28.977208,41.008733],[28.977296,41.008673],[28.977389,41.008733],[28.977315,41.008794],[28.977208,41.008733]]]}},{"type":"Feature","properties":{"osm_id":103953125,"building":"yes"},"geometry":{"type":"Polygon","coordinates":[[[28.976862,41.006466],[28.976683,41.006574],[28.976619,41.006611],[28.976676,41.006663],[28.976718,41.006638],[28.976839,41.006753],[28.976871,41.006735],[28.976929,41.00679],[28.976913,41.0068],[28.977021,41.006903],[28.976967,41.006935],[28.977153,41.007113],[28.977248,41.007056],[28.977352,41.006994],[28.977125,41.006777],[28.977164,41.006754],[28.976862,41.006466]]]}},{"type":"Feature","properties":{"osm_id":104061375,"building":"mosque"},"geometry":{"type":"Polygon","coordinates":[[[28.978413,41.009958],[28.978246,41.010102],[28.978389,41.010196],[28.978556,41.010051],[28.978413,41.009958]]]}},{"type":"Feature","properties":{"osm_id":109738924,"building":"yes"},"geometry":{"type":"Polygon","coordinates":[[[28.978861,41.008261],[28.978977,41.008179],[28.978894,41.008112],[28.978778,41.008194],[28.978861,41.008261]]]}},{"type":"Feature","properties":{"osm_id":109738926,"building":"yes"},"geometry":{"type":"Polygon","coordinates":[[[28.979073,41.00809],[28.979171,41.008036],[28.979098,41.007961],[28.979001,41.008015],[28.979073,41.00809]]]}},{"type":"Feature","properties":{"osm_id":109738930,"building":"roof"},"geometry":{"type":"Polygon","coordinates":[[[28.979013,41.008394],[28.979076,41.008364],[28.979092,41.008308],[28.979051,41.00826],[28.978977,41.008248],[28.978914,41.008279],[28.978898,41.008335],[28.978939,41.008382],[28.979013,41.008394]]]}},{"type":"Feature","properties":{"osm_id":109836394,"building":"yes"},"geometry":{"type":"Polygon","coordinates":[[[28.97992,41.007654],[28.979824,41.007648],[28.97975,41.007695],[28.979742,41.007767],[28.979876,41.007903],[28.979909,41.007885],[28.979925,41.007902],[28.980047,41.007835],[28.980031,41.007818],[28.980063,41.0078],[28.979979,41.007712],[28.97992,41.007654]]]}},{"type":"Feature","properties":{"osm_id":109836395,"building":"yes"},"geometry":{"type":"Polygon","coordinates":[[[28.979322,41.007943],[28.979443,41.007979],[28.979491,41.008024],[28.979592,41.007963],[28.979544,41.007918],[28.979525,41.007821],[28.979404,41.007786],[28.979303,41.007847],[28.979322,41.007943]]]}},{"type":"Feature","properties":{"osm_id":109862851,"building":"church"},"geometry":{"type":"Polygon","coordinates":[[[28.980617,41.008653],[28.980497,41.008711],[28.980612,41.008838],[28.980438,41.008949],[28.980366,41.008875],[28.98032,41.008902],[28.980254,41.008831],[28.980217,41.008848],[28.9803,41.008932],[28.980157,41.009011],[28.980076,41.008917],[28.980014,41.00895],[28.98012,41.009073],[28.979972,41.009148],[28.979903,41.009182],[28.979827,41.009099],[28.979757,41.009132],[28.979709,41.009076],[28.979637,41.009111],[28.979673,41.009153],[28.979612,41.009183],[28.979513,41.009067],[28.979646,41.009003],[28.979566,41.008908],[28.979524,41.008929],[28.979509,41.008911],[28.97955,41.00889],[28.979518,41.008854],[28.979478,41.008873],[28.979463,41.008855],[28.979503,41.008836],[28.979487,41.008817],[28.979471,41.008799],[28.979431,41.008819],[28.979414,41.008802],[28.979455,41.008779],[28.979428,41.008749],[28.979385,41.00877],[28.979366,41.008747],[28.979409,41.008725],[28.97934,41.008644],[28.9792,41.008717],[28.979139,41.008647],[28.979163,41.008633],[28.979078,41.008538],[28.979183,41.008485],[28.979109,41.008402],[28.979195,41.008359],[28.979218,41.008346],[28.979234,41.008364],[28.979299,41.008329],[28.979155,41.008173],[28.979218,41.008137],[28.9793,41.008226],[28.979468,41.008143],[28.97952,41.008199],[28.979606,41.008155],[28.979643,41.008197],[28.979725,41.008294],[28.97975,41.008282],[28.979674,41.008191],[28.979757,41.008152],[28.97983,41.00824],[28.979898,41.008199],[28.979833,41.00812],[28.979932,41.008073],[28.979998,41.00815],[28.980066,41.008115],[28.980003,41.00804],[28.980046,41.008017],[28.979952,41.007919],[28.980103,41.00784],[28.98026,41.008003],[28.980296,41.007985],[28.980667,41.008384],[28.980765,41.008331],[28.980847,41.008414],[28.980917,41.008485],[28.98084,41.008524],[28.980894,41.008576],[28.980818,41.008612],[28.980809,41.008601],[28.980642,41.008684],[28.980617,41.008653]]]}},{"type":"Feature","properties":{"osm_id":109864688,"building":"yes"},"geometry":{"type":"Polygon","coordinates":[[[28.980216,41.009182],[28.980531,41.008971],[28.980564,41.009001],[28.980867,41.008799],[28.980948,41.008871],[28.980331,41.009279],[28.980216,41.009182]]]}},{"type":"Feature","properties":{"osm_id":132277807,"building":"yes"},"geometry":{"type":"Polygon","coordinates":[[[28.979342,41.008],[28.979342,41.008031],[28.979371,41.008053],[28.979412,41.008053],[28.979441,41.008031],[28.979441,41.008],[28.979413,41.007978],[28.979371,41.007978],[28.979342,41.008]]]}},{"type":"Feature","properties":{"osm_id":151790453,"building":"yes"},"geometry":{"type":"Polygon","coordinates":[[[28.979005,41.007289],[28.979222,41.007181],[28.978713,41.006601],[28.978497,41.00671],[28.979005,41.007289]]]}},{"type":"Feature","properties":{"osm_id":180546853,"building":"yes"},"geometry":{"type":"Polygon","coordinates":[[[28.977843,41.00842],[28.977913,41.008464],[28.977966,41.008417],[28.977999,41.008388],[28.977929,41.008343],[28.977843,41.00842]]]}},{"type":"Feature","properties":{"osm_id":246104836,"building":"yes"},"geometry":{"type":"Polygon","coordinates":[[[28.978093,41.008536],[28.978069,41.008555],[28.978048,41.008543],[28.977999,41.008582],[28.978029,41.00861],[28.97801,41.008623],[28.978118,41.008704],[28.97821,41.008628],[28.978197,41.008617],[28.978131,41.008565],[28.978093,41.008536]]]}},{"type":"Feature","properties":{"osm_id":264240134,"building":"yes"},"geometry":{"type":"Polygon","coordinates":[[[28.979427,41.010035],[28.979469,41.010066],[28.979525,41.010023],[28.979542,41.010012],[28.979577,41.009987],[28.979501,41.009917],[28.979427,41.010035]]]}},{"type":"Feature","properties":{"osm_id":264240135,"building":"yes"},"geometry":{"type":"Polygon","coordinates":[[[28.979367,41.009492],[28.979512,41.009681],[28.979422,41.00972],[28.979277,41.009532],[28.979367,41.009492]]]}},{"type":"Feature","properties":{"osm_id":264240139,"building":"retail"},"geometry":{"type":"Polygon","coordinates":[[[28.97965,41.009778],[28.979536,41.009849],[28.979522,41.009897],[28.979501,41.009917],[28.979577,41.009987],[28.979716,41.009908],[28.979762,41.009879],[28.97965,41.009778]]]}},{"type":"Feature","properties":{"osm_id":265002616,"building":"apartments"},"geometry":{"type":"Polygon","coordinates":[[[28.97781,41.008545],[28.977743,41.008501],[28.977642,41.008586],[28.977711,41.00863],[28.97781,41.008545]]]}},{"type":"Feature","properties":{"osm_id":265002620,"building":"apartments"},"geometry":{"type":"Polygon","coordinates":[[[28.977711,41.00863],[28.977678,41.008655],[28.97769,41.008662],[28.977649,41.0087],[28.97763,41.008701],[28.977516,41.008626],[28.977597,41.008559],[28.977642,41.008586],[28.977711,41.00863]]]}},{"type":"Feature","properties":{"osm_id":307332872,"building":"mosque"},"geometry":{"type":"Polygon","coordinates":[[[28.977424,41.009147],[28.977382,41.009116],[28.977399,41.0091],[28.977379,41.009088],[28.977447,41.009036],[28.977508,41.009082],[28.977424,41.009147]]]}},{"type":"Feature","properties":{"osm_id":312156102,"building":"yes"},"geometry":{"type":"Polygon","coordinates":[[[28.976631,41.009118],[28.976456,41.008988],[28.976646,41.008849],[28.976774,41.008756],[28.976815,41.008782],[28.976956,41.008659],[28.977134,41.008812],[28.976935,41.008976],[28.976867,41.008927],[28.976631,41.009118]]]}},{"type":"Feature","properties":{"osm_id":312156106,"building":"yes"},"geometry":{"type":"Polygon","coordinates":[[[28.977117,41.008574],[28.977009,41.008661],[28.976955,41.008617],[28.976938,41.0086],[28.97696,41.008583],[28.976937,41.008563],[28.9769,41.008584],[28.976862,41.008542],[28.976894,41.00852],[28.976839,41.008473],[28.976915,41.00842],[28.977025,41.008524],[28.977046,41.00851],[28.977117,41.008574]]]}},{"type":"Feature","properties":{"osm_id":312334974,"building":"yes"},"geometry":{"type":"Polygon","coordinates":[[[28.976854,41.009133],[28.976827,41.009118],[28.976852,41.009093],[28.976831,41.009082],[28.976882,41.009037],[28.976897,41.009045],[28.976922,41.009021],[28.976945,41.00904],[28.976961,41.009024],[28.977024,41.009072],[28.977015,41.009082],[28.97704,41.009103],[28.977017,41.009128],[28.977028,41.00914],[28.97698,41.009181],[28.976964,41.009172],[28.976948,41.009188],[28.976915,41.00917],[28.9769,41.009185],[28.976842,41.009151],[28.976854,41.009133]]]}},{"type":"Feature","properties":{"osm_id":312748431,"building":"yes"},"geometry":{"type":"Polygon","coordinates":[[[28.978779,41.008309],[28.978735,41.008331],[28.97869,41.008353],[28.978824,41.008507],[28.978865,41.008486],[28.978913,41.008463],[28.978779,41.008309]]]}},{"type":"Feature","properties":{"osm_id":313451996,"building":"yes"},"geometry":{"type":"Polygon","coordinates":[[[28.976934,41.008184],[28.976916,41.008],[28.977011,41.00799],[28.977014,41.008044],[28.977017,41.008141],[28.977021,41.008187],[28.976934,41.008184]]]}},{"type":"Feature","properties":{"osm_id":313452823,"building":"yes"},"geometry":{"type":"Polygon","coordinates":[[[28.977195,41.008137],[28.977278,41.00814],[28.977277,41.00812],[28.977258,41.007949],[28.977177,41.007964],[28.977195,41.008137]]]}},{"type":"Feature","properties":{"osm_id":313452826,"building":"yes"},"geometry":{"type":"Polygon","coordinates":[[[28.977277,41.00812],[28.977392,41.008117],[28.97739,41.0081],[28.977368,41.007936],[28.977258,41.007949],[28.977277,41.00812]]]}},{"type":"Feature","properties":{"osm_id":313452827,"building":"yes"},"geometry":{"type":"Polygon","coordinates":[[[28.97739,41.0081],[28.977461,41.008088],[28.977439,41.007927],[28.977368,41.007936],[28.97739,41.0081]]]}},{"type":"Feature","properties":{"osm_id":313452828,"building":"yes"},"geometry":{"type":"Polygon","coordinates":[[[28.977286,41.008211],[28.977278,41.00814],[28.977277,41.00812],[28.977392,41.008117],[28.977393,41.008133],[28.9774,41.00822],[28.977286,41.008211]]]}},{"type":"Feature","properties":{"osm_id":313452829,"building":"yes"},"geometry":{"type":"Polygon","coordinates":[[[28.9774,41.00822],[28.977465,41.008221],[28.977451,41.00813],[28.977393,41.008133],[28.9774,41.00822]]]}},{"type":"Feature","properties":{"osm_id":313452830,"building":"yes"},"geometry":{"type":"Polygon","coordinates":[[[28.977465,41.008221],[28.977539,41.008218],[28.977524,41.008103],[28.977449,41.008116],[28.977465,41.008221]]]}},{"type":"Feature","properties":{"osm_id":329082241,"building":"yes"},"geometry":{"type":"Polygon","coordinates":[[[28.978766,41.009798],[28.978741,41.009529],[28.978845,41.009523],[28.978856,41.009561],[28.978862,41.009703],[28.978963,41.009698],[28.978953,41.009589],[28.97905,41.009584],[28.979069,41.009782],[28.978766,41.009798]]]}},{"type":"Feature","properties":{"osm_id":329104434,"building":"yes"},"geometry":{"type":"Polygon","coordinates":[[[28.978963,41.009551],[28.978954,41.009477],[28.978851,41.009485],[28.97886,41.009559],[28.978963,41.009551]]]}},{"type":"Feature","properties":{"osm_id":335422572,"building":"yes"},"geometry":{"type":"Polygon","coordinates":[[[28.977621,41.009862],[28.977773,41.009738],[28.977689,41.00968],[28.977634,41.009724],[28.977536,41.009802],[28.977621,41.009862]]]}},{"type":"Feature","properties":{"osm_id":335422575,"building":"mosque"},"geometry":{"type":"Polygon","coordinates":[[[28.978086,41.009953],[28.978215,41.009862],[28.978124,41.009789],[28.977996,41.00988],[28.978086,41.009953]]]}},{"type":"Feature","properties":{"osm_id":401191729,"building":"yes"},"geometry":{"type":"Polygon","coordinates":[[[28.980198,41.009524],[28.980248,41.009562],[28.980271,41.00958],[28.980336,41.009532],[28.98031,41.009513],[28.980262,41.009476],[28.980198,41.009524]]]}},{"type":"Feature","properties":{"osm_id":405680368,"building":"yes"},"geometry":{"type":"Polygon","coordinates":[[[28.978531,41.009632],[28.978434,41.009706],[28.978402,41.009689],[28.978415,41.009643],[28.978323,41.00958],[28.978517,41.009421],[28.978531,41.009632]]]}},{"type":"Feature","properties":{"osm_id":405680428,"building":"yes"},"geometry":{"type":"Polygon","coordinates":[[[28.97893,41.009587],[28.97886,41.009594],[28.978856,41.009561],[28.978924,41.009555],[28.97893,41.009587]]]}},{"type":"Feature","properties":{"osm_id":521619177,"building":"yes"},"geometry":{"type":"Polygon","coordinates":[[[28.980082,41.009523],[28.980009,41.009571],[28.980092,41.009642],[28.980164,41.009594],[28.980158,41.009589],[28.980165,41.009584],[28.980127,41.00955],[28.980119,41.009555],[28.980082,41.009523]]]}},{"type":"Feature","properties":{"osm_id":521619179,"building":"yes"},"geometry":{"type":"Polygon","coordinates":[[[28.979961,41.010046],[28.980047,41.01015],[28.980101,41.010125],[28.980247,41.0103],[28.980376,41.010239],[28.980144,41.00996],[28.980047,41.010006],[28.980047,41.010006],[28.979961,41.010046]]]}},{"type":"Feature","properties":{"osm_id":521619182,"building":"hotel"},"geometry":{"type":"Polygon","coordinates":[[[28.980517,41.009225],[28.980461,41.009266],[28.980546,41.009333],[28.980614,41.009283],[28.98058,41.009257],[28.980658,41.009199],[28.980607,41.009159],[28.980517,41.009225]]]}},{"type":"Feature","properties":{"osm_id":521619183,"building":"civic"},"geometry":{"type":"Polygon","coordinates":[[[28.980028,41.009693],[28.980067,41.009674],[28.980038,41.009641],[28.979989,41.009581],[28.979741,41.009699],[28.97979,41.009758],[28.979824,41.009742],[28.979851,41.009778],[28.979918,41.009749],[28.979889,41.009711],[28.979945,41.009685],[28.979989,41.00974],[28.980038,41.009706],[28.980028,41.009693]]]}},{"type":"Feature","properties":{"osm_id":521619184,"building":"hotel"},"geometry":{"type":"Polygon","coordinates":[[[28.980092,41.009517],[28.980184,41.009579],[28.980218,41.009548],[28.98019,41.009523],[28.980238,41.009483],[28.980179,41.009443],[28.980092,41.009517]]]}},{"type":"Feature","properties":{"osm_id":521619185,"building":"hotel"},"geometry":{"type":"Polygon","coordinates":[[[28.980205,41.009426],[28.980286,41.009486],[28.980375,41.009418],[28.980294,41.009358],[28.980205,41.009426]]]}},{"type":"Feature","properties":{"osm_id":521619186,"building":"hotel"},"geometry":{"type":"Polygon","coordinates":[[[28.98041,41.009313],[28.980387,41.009298],[28.980324,41.009352],[28.980342,41.009364],[28.98033,41.009373],[28.980413,41.009436],[28.980536,41.009344],[28.980454,41.009281],[28.98041,41.009313]]]}},{"type":"Feature","properties":{"osm_id":521619194,"building":"yes"},"geometry":{"type":"Polygon","coordinates":[[[28.980143,41.009884],[28.980203,41.009953],[28.980313,41.009898],[28.980253,41.00983],[28.980143,41.009884]]]}},{"type":"Feature","properties":{"osm_id":521619195,"building":"yes"},"geometry":{"type":"Polygon","coordinates":[[[28.980312,41.009919],[28.980214,41.009969],[28.980504,41.010292],[28.980602,41.010241],[28.980312,41.009919]]]}},{"type":"Feature","properties":{"osm_id":526728943,"building":"retail"},"geometry":{"type":"Polygon","coordinates":[[[28.978286,41.00982],[28.978374,41.009747],[28.97823,41.009649],[28.978142,41.009722],[28.978286,41.00982]]]}},{"type":"Feature","properties":{"osm_id":526728944,"building":"yes"},"geometry":{"type":"Polygon","coordinates":[[[28.978158,41.009691],[28.978274,41.009602],[28.9782,41.009547],[28.978085,41.009636],[28.978158,41.009691]]]}},{"type":"Feature","properties":{"osm_id":526728947,"building":"yes"},"geometry":{"type":"Polygon","coordinates":[[[28.977641,41.009954],[28.977592,41.009998],[28.977662,41.010042],[28.977605,41.010094],[28.977643,41.010118],[28.977691,41.01009],[28.977699,41.010097],[28.977768,41.010035],[28.977641,41.009954]]]}},{"type":"Feature","properties":{"osm_id":526728954,"building":"yes"},"geometry":{"type":"Polygon","coordinates":[[[28.977207,41.009704],[28.977091,41.009612],[28.976913,41.009766],[28.976978,41.009809],[28.976999,41.009791],[28.977077,41.009842],[28.977125,41.009801],[28.977123,41.009787],[28.977134,41.009767],[28.977207,41.009704]]]}},{"type":"Feature","properties":{"osm_id":526728956,"building":"yes"},"geometry":{"type":"Polygon","coordinates":[[[28.977134,41.009767],[28.977123,41.009787],[28.977125,41.009801],[28.977128,41.009813],[28.977225,41.009877],[28.977246,41.009858],[28.977215,41.009832],[28.977223,41.009825],[28.977134,41.009767]]]}},{"type":"Feature","properties":{"osm_id":526728958,"building":"yes"},"geometry":{"type":"Polygon","coordinates":[[[28.977298,41.009761],[28.977207,41.009704],[28.977134,41.009767],[28.977223,41.009825],[28.977298,41.009761]]]}},{"type":"Feature","properties":{"osm_id":526728960,"building":"yes"},"geometry":{"type":"Polygon","coordinates":[[[28.977378,41.009812],[28.977358,41.009799],[28.977363,41.009795],[28.977305,41.009756],[28.977298,41.009761],[28.977223,41.009825],[28.977215,41.009832],[28.977293,41.009884],[28.977309,41.009871],[28.977378,41.009812]]]}},{"type":"Feature","properties":{"osm_id":526728962,"building":"yes"},"geometry":{"type":"Polygon","coordinates":[[[28.977413,41.009836],[28.977378,41.009812],[28.977309,41.009871],[28.977344,41.009894],[28.977413,41.009836]]]}},{"type":"Feature","properties":{"osm_id":526728964,"building":"yes"},"geometry":{"type":"Polygon","coordinates":[[[28.9774,41.010094],[28.977409,41.0101],[28.977535,41.009993],[28.977459,41.009942],[28.977525,41.009887],[28.977428,41.009822],[28.977413,41.009836],[28.977344,41.009894],[28.977237,41.009985],[28.977308,41.010032],[28.9774,41.010094]]]}},{"type":"Feature","properties":{"osm_id":526728968,"building":"yes"},"geometry":{"type":"Polygon","coordinates":[[[28.977032,41.010127],[28.977124,41.010188],[28.977308,41.010032],[28.977237,41.009985],[28.977216,41.009971],[28.977032,41.010127]]]}},{"type":"Feature","properties":{"osm_id":526728969,"building":"yes"},"geometry":{"type":"Polygon","coordinates":[[[28.976868,41.010017],[28.977032,41.010127],[28.977216,41.009971],[28.977104,41.009896],[28.977054,41.009939],[28.977002,41.009903],[28.976868,41.010017]]]}},{"type":"Feature","properties":{"osm_id":526728970,"building":"yes"},"geometry":{"type":"Polygon","coordinates":[[[28.976868,41.010017],[28.977002,41.009903],[28.976924,41.009851],[28.97691,41.009863],[28.976866,41.009833],[28.976746,41.009935],[28.976868,41.010017]]]}},{"type":"Feature","properties":{"osm_id":526728977,"building":"yes"},"geometry":{"type":"Polygon","coordinates":[[[28.977079,41.009609],[28.976924,41.009508],[28.976834,41.009586],[28.97699,41.009687],[28.977079,41.009609]]]}},{"type":"Feature","properties":{"osm_id":526728981,"building":"hotel"},"geometry":{"type":"Polygon","coordinates":[[[28.97824,41.010054],[28.978124,41.009966],[28.977953,41.010095],[28.97807,41.010183],[28.97824,41.010054]]]}},{"type":"Feature","properties":{"osm_id":526728983,"building":"yes"},"geometry":{"type":"Polygon","coordinates":[[[28.97824,41.010054],[28.978436,41.009906],[28.978319,41.009818],[28.978124,41.009966],[28.97824,41.010054]]]}},{"type":"Feature","properties":{"osm_id":526728984,"building":"yes"},"geometry":{"type":"Polygon","coordinates":[[[28.978434,41.009882],[28.978546,41.009799],[28.978459,41.009731],[28.978346,41.009814],[28.978434,41.009882]]]}},{"type":"Feature","properties":{"osm_id":526728986,"building":"yes"},"geometry":{"type":"Polygon","coordinates":[[[28.977773,41.009738],[28.977872,41.009658],[28.977611,41.009476],[28.977557,41.009515],[28.977737,41.009642],[28.977689,41.00968],[28.977773,41.009738]]]}},{"type":"Feature","properties":{"osm_id":526728989,"building":"yes"},"geometry":{"type":"Polygon","coordinates":[[[28.977613,41.009739],[28.977568,41.009707],[28.977588,41.009691],[28.977486,41.00962],[28.977423,41.00967],[28.977401,41.00969],[28.977548,41.009792],[28.977613,41.009739]]]}},{"type":"Feature","properties":{"osm_id":526728991,"building":"yes"},"geometry":{"type":"Polygon","coordinates":[[[28.977221,41.009433],[28.97717,41.009479],[28.977226,41.009514],[28.977277,41.009468],[28.977221,41.009433]]]}},{"type":"Feature","properties":{"osm_id":526728993,"building":"yes"},"geometry":{"type":"Polygon","coordinates":[[[28.977122,41.009522],[28.97717,41.009479],[28.977221,41.009433],[28.977144,41.009384],[28.977045,41.009473],[28.977122,41.009522]]]}},{"type":"Feature","properties":{"osm_id":526728995,"building":"yes"},"geometry":{"type":"Polygon","coordinates":[[[28.97758,41.009485],[28.977741,41.009358],[28.977624,41.009274],[28.977463,41.009401],[28.97758,41.009485]]]}},{"type":"Feature","properties":{"osm_id":526728997,"building":"yes"},"geometry":{"type":"Polygon","coordinates":[[[28.977289,41.009172],[28.977211,41.009243],[28.977248,41.009268],[28.977299,41.009228],[28.977331,41.009203],[28.977289,41.009172]]]}},{"type":"Feature","properties":{"osm_id":526729000,"building":"hotel"},"geometry":{"type":"Polygon","coordinates":[[[28.977508,41.009082],[28.977424,41.009147],[28.977405,41.009163],[28.977412,41.009169],[28.977388,41.009191],[28.977491,41.009261],[28.977547,41.009218],[28.977567,41.009233],[28.977661,41.009161],[28.977532,41.009065],[28.977508,41.009082]]]}},{"type":"Feature","properties":{"osm_id":526729002,"building":"yes"},"geometry":{"type":"Polygon","coordinates":[[[28.977869,41.009365],[28.977908,41.009391],[28.97786,41.009431],[28.977906,41.009462],[28.977936,41.009436],[28.977952,41.009447],[28.977975,41.009428],[28.978014,41.00939],[28.977918,41.009324],[28.977869,41.009365]]]}},{"type":"Feature","properties":{"osm_id":526729004,"building":"yes"},"geometry":{"type":"Polygon","coordinates":[[[28.97783,41.009267],[28.977816,41.009258],[28.97777,41.009299],[28.977869,41.009365],[28.977918,41.009324],[28.97783,41.009267]]]}},{"type":"Feature","properties":{"osm_id":526729006,"building":"yes"},"geometry":{"type":"Polygon","coordinates":[[[28.977918,41.009324],[28.977965,41.009283],[28.977941,41.009267],[28.977931,41.009276],[28.977904,41.009258],[28.977915,41.009248],[28.977879,41.009225],[28.97783,41.009267],[28.977918,41.009324]]]}},{"type":"Feature","properties":{"osm_id":526729009,"building":"yes"},"geometry":{"type":"Polygon","coordinates":[[[28.978241,41.009086],[28.978292,41.009124],[28.978341,41.00909],[28.978294,41.009048],[28.978241,41.009086]]]}},{"type":"Feature","properties":{"osm_id":526729017,"building":"yes"},"geometry":{"type":"Polygon","coordinates":[[[28.978101,41.009519],[28.978179,41.009458],[28.978248,41.009517],[28.978377,41.009416],[28.978177,41.009257],[28.978014,41.00939],[28.977975,41.009428],[28.978101,41.009519]]]}},{"type":"Feature","properties":{"osm_id":526729019,"building":"yes"},"geometry":{"type":"Polygon","coordinates":[[[28.978331,41.009313],[28.978382,41.009284],[28.978398,41.009299],[28.978478,41.009253],[28.978464,41.009239],[28.978497,41.009221],[28.978469,41.009194],[28.978477,41.00919],[28.97845,41.009163],[28.978489,41.009141],[28.978462,41.009114],[28.978445,41.009124],[28.978406,41.009085],[28.978364,41.009109],[28.97835,41.009117],[28.978337,41.009104],[28.978249,41.009154],[28.978259,41.009163],[28.97821,41.009191],[28.978243,41.009224],[28.978222,41.009235],[28.978287,41.0093],[28.978307,41.009288],[28.978331,41.009313]]]}},{"type":"Feature","properties":{"osm_id":526729023,"building":"yes"},"geometry":{"type":"Polygon","coordinates":[[[28.978423,41.008586],[28.978413,41.008484],[28.978319,41.008389],[28.978204,41.008465],[28.97824,41.008497],[28.978131,41.008565],[28.978197,41.008617],[28.978284,41.008567],[28.978323,41.008602],[28.978423,41.008586]]]}},{"type":"Feature","properties":{"osm_id":526729106,"building":"yes"},"geometry":{"type":"Polygon","coordinates":[[[28.977233,41.008712],[28.977318,41.008653],[28.977239,41.00859],[28.977155,41.008649],[28.977233,41.008712]]]}},{"type":"Feature","properties":{"osm_id":526729107,"building":"apartments"},"geometry":{"type":"Polygon","coordinates":[[[28.9774,41.008876],[28.97747,41.008803],[28.977411,41.008771],[28.977341,41.008844],[28.9774,41.008876]]]}},{"type":"Feature","properties":{"osm_id":526729108,"building":"yes"},"geometry":{"type":"Polygon","coordinates":[[[28.97751,41.008624],[28.977594,41.008556],[28.977547,41.008523],[28.977463,41.008591],[28.97751,41.008624]]]}},{"type":"Feature","properties":{"osm_id":526729109,"building":"yes"},"geometry":{"type":"Polygon","coordinates":[[[28.97743,41.008518],[28.977501,41.008472],[28.977468,41.008444],[28.977489,41.008431],[28.97745,41.008397],[28.977327,41.008476],[28.977357,41.008503],[28.977389,41.008482],[28.97743,41.008518]]]}},{"type":"Feature","properties":{"osm_id":526729110,"building":"yes"},"geometry":{"type":"Polygon","coordinates":[[[28.977332,41.008652],[28.977417,41.008594],[28.977307,41.008502],[28.977222,41.008559],[28.977332,41.008652]]]}},{"type":"Feature","properties":{"osm_id":526729111,"building":"yes"},"geometry":{"type":"Polygon","coordinates":[[[28.977421,41.008719],[28.977499,41.008654],[28.977421,41.008601],[28.977343,41.008667],[28.977421,41.008719]]]}},{"type":"Feature","properties":{"osm_id":526729112,"building":"yes"},"geometry":{"type":"Polygon","coordinates":[[[28.977642,41.008432],[28.977576,41.008351],[28.977548,41.008257],[28.97737,41.008257],[28.977214,41.008255],[28.977273,41.008326],[28.977299,41.008371],[28.977312,41.008392],[28.977374,41.008385],[28.977399,41.008413],[28.977485,41.008367],[28.97754,41.008414],[28.977482,41.008439],[28.977545,41.008518],[28.977642,41.008432]]]}},{"type":"Feature","properties":{"osm_id":526729113,"building":"yes"},"geometry":{"type":"Polygon","coordinates":[[[28.977738,41.008495],[28.977642,41.008432],[28.977545,41.008518],[28.977641,41.00858],[28.977738,41.008495]]]}},{"type":"Feature","properties":{"osm_id":526729120,"building":"yes"},"geometry":{"type":"Polygon","coordinates":[[[28.976983,41.008373],[28.977126,41.008379],[28.977136,41.008461],[28.977299,41.008371],[28.977273,41.008326],[28.977214,41.008255],[28.976985,41.008252],[28.976983,41.008373]]]}},{"type":"Feature","properties":{"osm_id":526729140,"building":"yes"},"geometry":{"type":"Polygon","coordinates":[[[28.977195,41.008137],[28.977177,41.007964],[28.977127,41.007974],[28.97713,41.008041],[28.977136,41.008137],[28.977195,41.008137]]]}},{"type":"Feature","properties":{"osm_id":526729141,"building":"yes"},"geometry":{"type":"Polygon","coordinates":[[[28.977286,41.008211],[28.977278,41.00814],[28.977195,41.008137],[28.977191,41.008198],[28.977286,41.008211]]]}},{"type":"Feature","properties":{"osm_id":530509354,"building":"yes"},"geometry":{"type":"Polygon","coordinates":[[[28.97931,41.009704],[28.979309,41.009583],[28.979097,41.009584],[28.979098,41.009705],[28.97931,41.009704]]]}},{"type":"Feature","properties":{"osm_id":530509356,"building":"yes"},"geometry":{"type":"Polygon","coordinates":[[[28.978821,41.009839],[28.979036,41.009831],[28.979034,41.00979],[28.978819,41.009798],[28.978821,41.009839]]]}},{"type":"Feature","properties":{"osm_id":530509358,"building":"yes"},"geometry":{"type":"Polygon","coordinates":[[[28.978825,41.009888],[28.979039,41.00988],[28.979036,41.009831],[28.978821,41.009839],[28.978825,41.009888]]]}},{"type":"Feature","properties":{"osm_id":530509360,"building":"yes"},"geometry":{"type":"Polygon","coordinates":[[[28.979061,41.009981],[28.979134,41.010076],[28.979277,41.009997],[28.979096,41.009832],[28.979039,41.00988],[28.979103,41.009937],[28.979061,41.009981]]]}},{"type":"Feature","properties":{"osm_id":530509362,"building":"yes"},"geometry":{"type":"Polygon","coordinates":[[[28.97883,41.009977],[28.978917,41.009974],[28.979021,41.009973],[28.979061,41.009981],[28.979103,41.009937],[28.979039,41.00988],[28.978825,41.009888],[28.97883,41.009977]]]}},{"type":"Feature","properties":{"osm_id":530509366,"building":"yes"},"geometry":{"type":"Polygon","coordinates":[[[28.978838,41.010103],[28.978925,41.0101],[28.978917,41.009974],[28.97883,41.009977],[28.978838,41.010103]]]}},{"type":"Feature","properties":{"osm_id":530509368,"building":"yes"},"geometry":{"type":"Polygon","coordinates":[[[28.979016,41.009371],[28.979031,41.009363],[28.978986,41.009311],[28.978922,41.009343],[28.978967,41.009395],[28.979016,41.009371]]]}},{"type":"Feature","properties":{"osm_id":530509370,"building":"yes"},"geometry":{"type":"Polygon","coordinates":[[[28.978991,41.009472],[28.97907,41.009433],[28.979016,41.009371],[28.978937,41.00941],[28.978991,41.009472]]]}},{"type":"Feature","properties":{"osm_id":530509372,"building":"yes"},"geometry":{"type":"Polygon","coordinates":[[[28.979162,41.009487],[28.979079,41.00943],[28.978992,41.009501],[28.979075,41.009559],[28.979162,41.009487]]]}},{"type":"Feature","properties":{"osm_id":530509374,"building":"yes"},"geometry":{"type":"Polygon","coordinates":[[[28.979296,41.009394],[28.979165,41.009223],[28.979015,41.009289],[28.979093,41.009389],[28.979052,41.009408],[28.979173,41.00948],[28.979296,41.009394]]]}},{"type":"Feature","properties":{"osm_id":530509376,"building":"yes"},"geometry":{"type":"Polygon","coordinates":[[[28.978727,41.009227],[28.978922,41.009212],[28.978901,41.009063],[28.978707,41.009078],[28.978727,41.009227]]]}},{"type":"Feature","properties":{"osm_id":530509378,"building":"yes"},"geometry":{"type":"Polygon","coordinates":[[[28.97894,41.009451],[28.9789,41.009259],[28.978725,41.00928],[28.978765,41.009472],[28.97894,41.009451]]]}},{"type":"Feature","properties":{"osm_id":709381141,"building":"yes"},"geometry":{"type":"Polygon","coordinates":[[[28.979551,41.007915],[28.979653,41.00801],[28.979703,41.008014],[28.979753,41.008063],[28.979884,41.007985],[28.979831,41.007933],[28.979833,41.007894],[28.979733,41.007796],[28.979679,41.007788],[28.979546,41.007874],[28.979551,41.007915]]]}},{"type":"Feature","properties":{"osm_id":776292365,"building":"yes"},"geometry":{"type":"Polygon","coordinates":[[[28.979919,41.009826],[28.979897,41.009805],[28.979865,41.009776],[28.979798,41.009817],[28.979831,41.009848],[28.979852,41.009867],[28.979919,41.009826]]]}},{"type":"Feature","properties":{"osm_id":1184849397,"building":"yes"},"geometry":{"type":"Polygon","coordinates":[[[28.97713,41.008041],[28.977014,41.008044],[28.977017,41.008141],[28.977136,41.008137],[28.97713,41.008041]]]}},{"type":"Feature","properties":{"osm_id":1184849398,"building":"yes"},"geometry":{"type":"Polygon","coordinates":[[[28.977021,41.008187],[28.977017,41.008141],[28.977136,41.008137],[28.977195,41.008137],[28.977191,41.008198],[28.977021,41.008187]]]}},{"type":"Feature","properties":{"osm_id":1184924696,"building":"yes"},"geometry":{"type":"Polygon","coordinates":[[[28.977769,41.009132],[28.97796,41.008973],[28.978029,41.00902],[28.978061,41.009042],[28.977871,41.009201],[28.977769,41.009132]]]}},{"type":"Feature","properties":{"osm_id":1184924697,"building":"yes"},"geometry":{"type":"Polygon","coordinates":[[[28.978138,41.009038],[28.978158,41.009024],[28.978094,41.008973],[28.978158,41.008928],[28.978219,41.008977],[28.97824,41.008962],[28.978322,41.009029],[28.978294,41.009048],[28.978241,41.009086],[28.978218,41.009102],[28.978138,41.009038]]]}},{"type":"Feature","properties":{"osm_id":1184927712,"building":"mosque"},"geometry":{"type":"Polygon","coordinates":[[[28.977331,41.009203],[28.977289,41.009172],[28.977364,41.009117],[28.977354,41.009108],[28.977379,41.009088],[28.977399,41.0091],[28.977382,41.009116],[28.977424,41.009147],[28.977405,41.009163],[28.977412,41.009169],[28.977388,41.009191],[28.977491,41.009261],[28.977536,41.009298],[28.977468,41.009352],[28.977299,41.009228],[28.977331,41.009203]]]}},{"type":"Feature","properties":{"osm_id":1412295921,"building":"yes"},"geometry":{"type":"Polygon","coordinates":[[[28.977588,41.009691],[28.977634,41.009724],[28.977689,41.00968],[28.977737,41.009642],[28.977557,41.009515],[28.977392,41.009648],[28.977423,41.00967],[28.977486,41.00962],[28.977588,41.009691]]]}}]}